NORAD_CAT_ID,OBJECT_NAME,OBJECT_TYPE,EPOCH,MEAN_MOTION,ECCENTRICITY,INCLINATION,RA_OF_ASC_NODE,ARG_OF_PERICENTER,MEAN_ANOMALY,BSTAR,MEAN_MOTION_DOT,MEAN_MOTION_DDOT,TLE_LINE0,TLE_LINE1,TLE_LINE2,SEMIMAJOR_AXIS,PERIOD,APOGEE,PERIGEE,DECAYED
52700.0,STARLINK-4034,PAYLOAD,2023-06-19 08:33:14,15.0883257,0.0001114,53.2165,292.4967,72.7732,287.3382,0.00035791,5.412e-05,0.0,0 STARLINK-4034,1 52700U 22053AW  23170.35641236  .00005412  00000-0  35791-3 0  9999,2 52700  53.2165 292.4967 0001114  72.7732 287.3382 15.08832570 60572,6917.903,95.438,540.539,538.997,0.0
52700.0,STARLINK-4034,PAYLOAD,2023-06-19 11:43:59,15.08844672,0.0001242,53.2166,291.902,70.2952,289.8174,2.9211e-05,1.77e-06,0.0,0 STARLINK-4034,1 52700U 22053AW  23170.48888539  .00000177  00000-0  29211-4 0  9996,2 52700  53.2166 291.9020 0001242  70.2952 289.8174 15.08844672 61007,6917.866,95.437,540.59,538.872,0.0
52700.0,STARLINK-4034,PAYLOAD,2023-06-19 14:54:46,15.08842917,0.0001068,53.2166,291.3074,69.3831,290.7276,0.00028376,4.231e-05,0.0,0 STARLINK-4034,1 52700U 22053AW  23170.62136700  .00004231  00000-0  28376-3 0  9993,2 52700  53.2166 291.3074 0001068  69.3831 290.7276 15.08842917 60611,6917.871,95.437,540.475,538.998,0.0
52700.0,STARLINK-4034,PAYLOAD,2023-06-20 00:27:05,15.0884096,0.000108,53.2163,289.5241,64.7756,295.3348,0.00013567,1.872e-05,0.0,0 STARLINK-4034,1 52700U 22053AW  23171.01880828  .00001872  00000-0  13567-3 0  9998,2 52700  53.2163 289.5241 0001080  64.7756 295.3348 15.08840960 60675,6917.877,95.437,540.49,538.995,0.0
52700.0,STARLINK-4034,PAYLOAD,2023-06-20 17:56:19,15.08842132,0.0001095,53.217,286.252,68.4815,291.6294,8.8863e-05,1.127e-05,0.0,0 STARLINK-4034,1 52700U 22053AW  23171.74744748  .00001127  00000-0  88863-4 0  9993,2 52700  53.2170 286.2520 0001095  68.4815 291.6294 15.08842132 61190,6917.874,95.437,540.496,538.981,0.0
52700.0,STARLINK-4034,PAYLOAD,2023-06-21 00:17:52,15.08836324,0.0001239,53.2168,285.0627,72.4892,287.6236,4.8118e-06,-2.11e-06,0.0,0 STARLINK-4034,1 52700U 22053AW  23172.01241102 -.00000211  00000-0  48118-5 0  9994,2 52700  53.2168 285.0627 0001239  72.4892 287.6236 15.08836324 60828,6917.892,95.438,540.614,538.899,0.0
52700.0,STARLINK-4034,PAYLOAD,2023-06-21 13:00:57,15.08838623,0.000111,53.2167,282.6849,80.8424,279.2694,1.28e-05,-8.4e-07,0.0,0 STARLINK-4034,1 52700U 22053AW  23172.54233106 -.00000084  00000-0  12800-4 0  9993,2 52700  53.2167 282.6849 0001110  80.8424 279.2694 15.08838623 61312,6917.885,95.438,540.517,538.982,0.0
52700.0,STARLINK-4034,PAYLOAD,2023-06-21 14:36:20,15.08839858,9.35e-05,53.2161,282.3887,75.7022,284.4074,3.6913e-05,3e-06,0.0,0 STARLINK-4034,1 52700U 22053AW  23172.60856889  .00000300  00000-0  36913-4 0  9990,2 52700  53.2161 282.3887 0000935  75.7022 284.4074 15.08839858 61328,6917.881,95.438,540.393,539.099,0.0
52700.0,STARLINK-4034,PAYLOAD,2023-06-22 08:05:35,15.08831865,8.67e-05,53.216,279.1164,80.478,279.631,-1.7587e-05,-5.67e-06,0.0,0 STARLINK-4034,1 52700U 22053AW  23173.33721585 -.00000567  00000-0 -17587-4 0  9998,2 52700  53.2160 279.1164 0000867  80.4780 279.6310 15.08831865 61023,6917.905,95.438,540.37,539.17,0.0
52700.0,STARLINK-4034,PAYLOAD,2023-06-22 14:27:07,15.08844223,9.3e-05,53.2166,277.9271,84.9539,275.1559,0.00010468,1.379e-05,0.0,0 STARLINK-4034,1 52700U 22053AW  23173.60217136  .00001379  00000-0  10468-3 0  9990,2 52700  53.2166 277.9271 0000930  84.9539 275.1559 15.08844223 61068,6917.867,95.437,540.376,539.089,0.0
52700.0,STARLINK-4034,PAYLOAD,2023-06-23 15:53:17,15.08863182,9.59e-05,53.2156,273.1698,89.3177,270.7925,0.00080188,0.00012505,0.0,0 STARLINK-4034,1 52700U 22053AW  23174.66200723  .00012505  00000-0  80188-3 0  9990,2 52700  53.2156 273.1698 0000959  89.3177 270.7925 15.08863182 61227,6917.81,95.436,540.338,539.011,0.0
52700.0,STARLINK-4034,PAYLOAD,2023-06-23 23:50:13,15.08848348,0.0001016,53.2148,271.6843,82.2539,277.8568,0.00019189,2.768e-05,0.0,0 STARLINK-4034,1 52700U 22053AW  23174.99320923  .00002768  00000-0  19189-3 0  9994,2 52700  53.2148 271.6843 0001016  82.2539 277.8568 15.08848348 61275,6917.855,95.437,540.423,539.017,0.0
52700.0,STARLINK-4034,PAYLOAD,2023-06-24 06:11:46,15.08835552,0.0001029,53.2151,270.4934,92.0159,268.0951,-0.00022019,-3.79e-05,0.0,0 STARLINK-4034,1 52700U 22053AW  23175.25817131 -.00003790  00000-0 -22019-3 0  9990,2 52700  53.2151 270.4934 0001029  92.0159 268.0951 15.08835552 61314,6917.894,95.438,540.471,539.047,0.0
52700.0,STARLINK-4034,PAYLOAD,2023-06-24 23:41:00,15.0884188,0.0001254,53.2151,267.2223,90.6048,269.5088,0.00024238,3.572e-05,0.0,0 STARLINK-4034,1 52700U 22053AW  23175.98681362  .00003572  00000-0  24238-3 0  9996,2 52700  53.2151 267.2223 0001254  90.6048 269.5088 15.08841880 61420,6917.875,95.437,540.607,538.872,0.0
52700.0,STARLINK-4034,PAYLOAD,2023-06-26 09:04:06,15.0883542,0.0001292,53.2147,260.9765,102.699,257.4147,7.5944e-05,9.21e-06,0.0,0 STARLINK-4034,1 52700U 22053AW  23177.37785810  .00000921  00000-0  75944-4 0  9990,2 52700  53.2147 260.9765 0001292 102.6990 257.4147 15.08835420 61636,6917.894,95.438,540.653,538.866,0.0
52700.0,STARLINK-4034,PAYLOAD,2023-06-27 12:05:40,15.08847571,0.0001083,53.2159,255.9234,96.1308,263.9808,0.00052598,8.095e-05,0.0,0 STARLINK-4034,1 52700U 22053AW  23178.50393830  .00008095  00000-0  52598-3 0  9992,2 52700  53.2159 255.9234 0001083  96.1308 263.9808 15.08847571 61807,6917.857,95.437,540.471,538.973,0.0
52700.0,STARLINK-4034,PAYLOAD,2023-06-28 03:59:31,15.08842923,0.0001122,53.2158,252.9501,95.9544,264.1576,0.00015114,2.119e-05,0.0,0 STARLINK-4034,1 52700U 22053AW  23179.16633827  .00002119  00000-0  15114-3 0  9992,2 52700  53.2158 252.9501 0001122  95.9544 264.1576 15.08842923 61905,6917.871,95.437,540.513,538.96,0.0
52700.0,STARLINK-4034,PAYLOAD,2023-06-28 21:28:46,15.08835936,7.35e-05,53.2156,249.6791,104.8525,255.2548,-4.8061e-05,-1.052e-05,0.0,0 STARLINK-4034,1 52700U 22053AW  23179.89497838 -.00001052  00000-0 -48061-4 0  9997,2 52700  53.2156 249.6791 0000735 104.8525 255.2548 15.08835936 62014,6917.893,95.438,540.266,539.249,0.0
52700.0,STARLINK-4034,PAYLOAD,2023-06-30 14:48:46,15.08868131,0.0001124,53.2163,241.9477,80.5094,279.6025,0.00048948,7.517e-05,0.0,0 STARLINK-4034,1 52700U 22053AW  23181.61720559  .00007517  00000-0  48948-3 0  9992,2 52700  53.2163 241.9477 0001124  80.5094 279.6025 15.08868131 62273,6917.794,95.436,540.437,538.882,0.0
52700.0,STARLINK-4034,PAYLOAD,2023-06-30 21:10:19,15.08851999,0.0001074,53.2162,240.7554,82.9593,277.1522,0.00018795,2.706e-05,0.0,0 STARLINK-4034,1 52700U 22053AW  23181.88217079  .00002706  00000-0  18795-3 0  9991,2 52700  53.2162 240.7554 0001074  82.9593 277.1522 15.08851999 62313,6917.844,95.437,540.452,538.966,0.0
52700.0,STARLINK-4034,PAYLOAD,2023-07-01 09:53:26,15.08826373,0.0001123,53.2152,238.3789,87.5998,272.5122,-9.7386e-05,-1.837e-05,0.0,0 STARLINK-4034,1 52700U 22053AW  23182.41210707 -.00001837  00000-0 -97386-4 0  9992,2 52700  53.2152 238.3789 0001123  87.5998 272.5122 15.08826373 62391,6917.922,95.438,540.564,539.01,0.0
52700.0,STARLINK-4034,PAYLOAD,2023-07-02 09:44:13,15.08835448,0.000108,53.2145,233.9174,89.6676,270.444,8.9488e-05,1.137e-05,0.0,0 STARLINK-4034,1 52700U 22053AW  23183.40570757  .00001137  00000-0  89488-4 0  9991,2 52700  53.2145 233.9174 0001080  89.6676 270.4440 15.08835448 62540,6917.894,95.438,540.506,539.012,0.0
52700.0,STARLINK-4034,PAYLOAD,2023-07-03 14:21:09,15.08854376,0.0001189,53.2142,228.5651,83.1404,276.9724,0.00057722,8.914e-05,0.0,0 STARLINK-4034,1 52700U 22053AW  23184.59802671  .00008914  00000-0  57722-3 0  9990,2 52700  53.2142 228.5651 0001189  83.1404 276.9724 15.08854376 62722,6917.836,95.437,540.524,538.879,0.0
52700.0,STARLINK-4034,PAYLOAD,2023-07-04 09:25:47,15.08844764,0.0001212,53.2147,224.996,86.8432,273.2699,0.00013787,1.907e-05,0.0,0 STARLINK-4034,1 52700U 22053AW  23185.39290627  .00001907  00000-0  13787-3 0  9999,2 52700  53.2147 224.9960 0001212  86.8432 273.2699 15.08844764 62842,6917.866,95.437,540.569,538.892,0.0
52700.0,STARLINK-4034,PAYLOAD,2023-07-05 18:48:52,15.08840225,0.0001216,53.2156,218.7512,89.2564,270.8567,-3.8032e-05,-8.93e-06,0.0,0 STARLINK-4034,1 52700U 22053AW  23186.78394589 -.00000893  00000-0 -38032-4 0  9991,2 52700  53.2156 218.7512 0001216  89.2564 270.8567 15.08840225 63052,6917.88,95.438,540.586,538.903,0.0
52700.0,STARLINK-4034,PAYLOAD,2023-07-06 02:45:49,15.08824165,0.0001087,53.2146,217.2661,107.7782,252.3329,0.00058524,9.034e-05,0.0,0 STARLINK-4034,1 52700U 22053AW  23187.11515823  .00009034  00000-0  58524-3 0  9996,2 52700  53.2146 217.2661 0001087 107.7782 252.3329 15.08824165 63106,6917.929,95.439,540.546,539.042,0.0
52700.0,STARLINK-4034,PAYLOAD,2023-07-06 10:42:44,15.08840869,0.0001144,53.2148,215.7789,102.1216,257.9905,2.5181e-05,1.13e-06,0.0,0 STARLINK-4034,1 52700U 22053AW  23187.44634570  .00000113  00000-0  25181-4 0  9996,2 52700  53.2148 215.7789 0001144 102.1216 257.9905 15.08840869 63152,6917.878,95.437,540.534,538.951,0.0
52700.0,STARLINK-4034,PAYLOAD,2023-07-07 18:30:27,15.08841255,0.000104,53.2154,209.8304,90.1013,270.0098,9.8054e-05,1.273e-05,0.0,0 STARLINK-4034,1 52700U 22053AW  23188.77114809  .00001273  00000-0  98054-4 0  9998,2 52700  53.2154 209.8304 0001040  90.1013 270.0098 15.08841255 63353,6917.877,95.437,540.461,539.022,0.0
52700.0,STARLINK-4034,PAYLOAD,2023-07-09 00:42:46,15.08841101,0.0001077,53.2155,204.1798,91.8883,268.2232,6.2052e-05,7e-06,0.0,0 STARLINK-4034,1 52700U 22053AW  23190.02970906  .00000700  00000-0  62052-4 0  9990,2 52700  53.2155 204.1798 0001077  91.8883 268.2232 15.08841101 63542,6917.877,95.437,540.487,538.997,0.0
52700.0,STARLINK-4034,PAYLOAD,2023-07-10 11:41:16,15.08838044,0.0001064,53.2156,197.6381,88.7428,271.3686,4.3772e-05,4.09e-06,0.0,0 STARLINK-4034,1 52700U 22053AW  23191.48699241  .00000409  00000-0  43772-4 0  9995,2 52700  53.2156 197.6381 0001064  88.7428 271.3686 15.08838044 63767,6917.886,95.438,540.487,539.015,0.0
